IRIDIUM 154             
1 43574U 18061F   26199.83674184  .00000012  00000+0 -28807-5 0  9990
2 43574  86.3939  43.5676 0002318  89.1774 270.9688 14.34217391417944
IRIDIUM 163             
1 43575U 18061G   26199.53864035  .00000029  00000+0  33452-5 0  9993
2 43575  86.3937  43.6067 0002102  86.5154 273.6282 14.34217443417872
IRIDIUM 156             
1 43576U 18061H   26199.51326775  .00000090  00000+0  25024-4 0  9999
2 43576  86.3937  43.6245 0002108  93.2314 266.9123 14.34218499417860
IRIDIUM 164             
1 43577U 18061J   26199.84308446  .00000052  00000+0  11557-4 0  9995
2 43577  86.3937  43.5275 0002339  88.5103 271.6360 14.34217997417950
IRIDIUM 159             
1 43578U 18061K   26199.81137055  .00000057  00000+0  13436-4 0  9992
2 43578  86.3935  43.4768 0002127  86.2317 273.9122 14.34217919417913
IRIDIUM 180             
1 43922U 19002A   26199.88063581 -.00000050  00000+0 -24858-4 0  9995
2 43922  86.3991 340.3494 0002045  91.2772 268.8658 14.34217545393536
IRIDIUM 176             
1 43923U 19002B   26199.90002469  .00000386  00000+0  57290-4 0  9993
2 43923  86.6117 340.2800 0002342  91.5413 268.6072 14.72251771403918
IRIDIUM 168             
1 43924U 19002C   26199.87429453  .00000127  00000+0  38118-4 0  9997
2 43924  86.3999 340.4297 0002193  90.8725 269.2722 14.34217591393511
IRIDIUM 173             
1 43925U 19002D   26199.86160817  .00000160  00000+0  49926-4 0  9999
2 43925  86.3994 340.3226 0002128  92.5460 267.5979 14.34218324393498
IRIDIUM 169             
1 43926U 19002E   26199.48273905  .00000066  00000+0  15176-4 0  9996
2 43926  86.4236  12.1048 0002097 102.7851 257.3582 14.38605573394722
IRIDIUM 172             
1 43927U 19002F   26199.85526570  .00000093  00000+0  26181-4 0  9995
2 43927  86.3995 340.3334 0002176  91.6156 268.5289 14.34218198393502
IRIDIUM 175             
1 43928U 19002G   26199.74462089  .00000160  00000+0  41264-4 0  9992
2 43928  86.4508 277.3306 0005461 108.6561 251.5233 14.43628294403539
IRIDIUM 171             
1 43929U 19002H   26199.83623789  .00000061  00000+0  14573-4 0  9992
2 43929  86.4006 340.6509 0002279  95.3979 264.7477 14.34217946393498
IRIDIUM 170             
1 43930U 19002J   26199.90619293  .00000385  00000+0  57208-4 0  9998
2 43930  86.6115 340.2795 0002223  88.8960 271.2512 14.72252377403924
IRIDIUM 167             
1 43931U 19002K   26199.89966397  .00000039  00000+0  69165-5 0  9999
2 43931  86.3997 340.3375 0002362  98.1583 261.9881 14.34217768393504
IRIDIUM 181             
1 56726U 23068S   26199.85931694  .00000161  00000+0  41931-4 0  9996
2 56726  86.4475  43.5450 0002385  84.1353 276.0120 14.43308329167004
IRIDIUM 177             
1 56727U 23068T   26199.82801031  .00000523  00000+0  65574-4 0  9996
2 56727  86.1988 313.7702 0002211  97.2283 262.9190 14.80027419171047
IRIDIUM 174             
1 56728U 23068U   26199.89373231  .00000341  00000+0  50197-4 0  9993
2 56728  86.6123 340.4352 0001925  90.8280 269.3158 14.72257248170689
IRIDIUM 178             
1 56729U 23068V   26199.88462637  .00000182  00000+0  20539-4 0  9992
2 56729  86.6527  12.1156 0002304  97.7409 262.4074 14.80023002171055
IRIDIUM 179             
1 56730U 23068W   26199.87928169  .00000123  00000+0  12770-4 0  9993
2 56730  86.6769  21.1869 0002375  93.8097 266.3396 14.80023647171059
