OBJECT_NAME,OBJECT_ID,EPOCH,MEAN_MOTION,ECCENTRICITY,INCLINATION,RA_OF_ASC_NODE,ARG_OF_PERICENTER,MEAN_ANOMALY,EPHEMERIS_TYPE,CLASSIFICATION_TYPE,NORAD_CAT_ID,ELEMENT_SET_NO,REV_AT_EPOCH,BSTAR,MEAN_MOTION_DOT,MEAN_MOTION_DDOT
IRIDIUM 154,2018-061F,2026-07-18T20:04:54.494976,14.34217391,.00023184,86.3939,43.5676,89.1774,270.9688,0,U,43574,999,41794,-.2880739E-5,.12E-6,0
IRIDIUM 163,2018-061G,2026-07-18T12:55:38.526240,14.34217443,.0002102,86.3937,43.6067,86.5154,273.6282,0,U,43575,999,41787,.3345166E-5,.29E-6,0
IRIDIUM 156,2018-061H,2026-07-18T12:19:06.333600,14.34218499,.00021089,86.3937,43.6245,93.2314,266.9123,0,U,43576,999,41786,.25024309E-4,.9E-6,0
IRIDIUM 164,2018-061J,2026-07-18T20:14:02.497344,14.34217997,.00023393,86.3937,43.5275,88.5103,271.6360,0,U,43577,999,41795,.11556515E-4,.52E-6,0
IRIDIUM 159,2018-061K,2026-07-18T19:28:22.415520,14.34217919,.00021274,86.3935,43.4768,86.2317,273.9122,0,U,43578,999,41791,.13436455E-4,.57E-6,0
IRIDIUM 180,2019-002A,2026-07-18T21:08:06.933984,14.34217545,.00020457,86.3991,340.3494,91.2772,268.8658,0,U,43922,999,39353,-.24857995E-4,-.5E-6,0
IRIDIUM 176,2019-002B,2026-07-18T21:36:02.133216,14.72251771,.00023425,86.6117,340.2800,91.5413,268.6072,0,U,43923,999,40391,.57290135E-4,.386E-5,0
IRIDIUM 168,2019-002C,2026-07-18T20:58:59.047392,14.34217591,.00021931,86.3999,340.4297,90.8725,269.2722,0,U,43924,999,39351,.381184E-4,.127E-5,0
IRIDIUM 173,2019-002D,2026-07-18T20:40:42.945888,14.34218324,.00021281,86.3994,340.3226,92.5460,267.5979,0,U,43925,999,39349,.49925872E-4,.16E-5,0
IRIDIUM 169,2019-002E,2026-07-18T11:35:08.653920,14.38605573,.00020977,86.4236,12.1048,102.7851,257.3582,0,U,43926,999,39472,.15176042E-4,.66E-6,0
IRIDIUM 172,2019-002F,2026-07-18T20:31:34.956480,14.34218198,.0002176,86.3995,340.3334,91.6156,268.5289,0,U,43927,999,39350,.26180572E-4,.93E-6,0
IRIDIUM 175,2019-002G,2026-07-18T17:52:15.244896,14.43628294,.00054613,86.4508,277.3306,108.6561,251.5233,0,U,43928,999,40353,.41264207E-4,.16E-5,0
IRIDIUM 171,2019-002H,2026-07-18T20:04:10.953696,14.34217946,.00022797,86.4006,340.6509,95.3979,264.7477,0,U,43929,999,39349,.14573271E-4,.61E-6,0
IRIDIUM 170,2019-002J,2026-07-18T21:44:55.069152,14.72252377,.00022232,86.6115,340.2795,88.8960,271.2512,0,U,43930,999,40392,.57208243E-4,.385E-5,0
IRIDIUM 167,2019-002K,2026-07-18T21:35:30.967008,14.34217768,.00023629,86.3997,340.3375,98.1583,261.9881,0,U,43931,999,39350,.6916492E-5,.39E-6,0
IRIDIUM 181,2023-068S,2026-07-18T20:37:24.983616,14.43308329,.00023857,86.4475,43.5450,84.1353,276.0120,0,U,56726,999,16700,.41931348E-4,.161E-5,0
IRIDIUM 177,2023-068T,2026-07-18T19:52:20.090784,14.80027419,.00022117,86.1988,313.7702,97.2283,262.9190,0,U,56727,999,17104,.65574137E-4,.523E-5,0
IRIDIUM 174,2023-068U,2026-07-18T21:26:58.471584,14.72257248,.00019254,86.6123,340.4352,90.8280,269.3158,0,U,56728,999,17068,.50196788E-4,.341E-5,0
IRIDIUM 178,2023-068V,2026-07-18T21:13:51.718368,14.80023002,.00023042,86.6527,12.1156,97.7409,262.4074,0,U,56729,999,17105,.20538511E-4,.182E-5,0
IRIDIUM 179,2023-068W,2026-07-18T21:06:09.938016,14.80023647,.00023759,86.6769,21.1869,93.8097,266.3396,0,U,56730,999,17105,.12769889E-4,.123E-5,0
